{
  "type": "FeatureCollection",
  "features": [
    {
      "type": "Feature",
      "properties": {
        "norad_id": 40118,
        "name": "GAOFEN-2",
        "group": "resource",
        "lat": 49.1505480092231,
        "lon": 45.17912139203899,
        "alt_km": 618.1878835178222,
        "timestamp": "2025-12-21T09:37:22.305501+00:00",
        "meta_object_name": "GAOFEN-2",
        "meta_object_id": "2014-049A",
        "meta_epoch": "2025-12-21T04:31:58.967616",
        "meta_mean_motion": 14.80621312,
        "meta_eccentricity": 0.000873,
        "meta_inclination": 98.0378,
        "meta_ra_of_asc_node": 54.3723,
        "meta_arg_of_pericenter": 89.8282,
        "meta_mean_anomaly": 270.393,
        "meta_ephemeris_type": 0,
        "meta_classification_type": "U",
        "meta_norad_cat_id": 40118,
        "meta_element_set_no": 999,
        "meta_rev_at_epoch": 61289,
        "meta_bstar": 5.7769e-05,
        "meta_mean_motion_dot": 3.9e-06,
        "meta_mean_motion_ddot": 0,
        "tle_line1": "1 40118U 14049A   25355.18887694  .00000390  00000+0  57769-4 0  9992",
        "tle_line2": "2 40118  98.0378  54.3723 0008730  89.8282 270.3930 14.80621312612898"
      },
      "geometry": {
        "type": "Point",
        "coordinates": [
          45.17912139203899,
          49.1505480092231
        ]
      }
    },
    {
      "type": "Feature",
      "properties": {
        "norad_id": 40143,
        "name": "YAOGAN-21",
        "group": "resource",
        "lat": -81.40353350781857,
        "lon": 94.7710820379907,
        "alt_km": 502.87133485868253,
        "timestamp": "2025-12-21T09:37:22.305511+00:00",
        "meta_object_name": "YAOGAN-21",
        "meta_object_id": "2014-053A",
        "meta_epoch": "2025-12-21T05:16:05.023776",
        "meta_mean_motion": 15.23751572,
        "meta_eccentricity": 0.0008924,
        "meta_inclination": 97.1744,
        "meta_ra_of_asc_node": 38.1642,
        "meta_arg_of_pericenter": 14.4578,
        "meta_mean_anomaly": 345.6914,
        "meta_ephemeris_type": 0,
        "meta_classification_type": "U",
        "meta_norad_cat_id": 40143,
        "meta_element_set_no": 999,
        "meta_rev_at_epoch": 62783,
        "meta_bstar": 7.4563e-05,
        "meta_mean_motion_dot": 1.727e-05,
        "meta_mean_motion_ddot": 0,
        "tle_line1": "1 40143U 14053A   25355.21950259  .00001727  00000+0  74563-4 0  9993",
        "tle_line2": "2 40143  97.1744  38.1642 0008924  14.4578 345.6914 15.23751572627838"
      },
      "geometry": {
        "type": "Point",
        "coordinates": [
          94.7710820379907,
          -81.40353350781857
        ]
      }
    },
    {
      "type": "Feature",
      "properties": {
        "norad_id": 40275,
        "name": "YAOGAN-22",
        "group": "resource",
        "lat": 68.0813581358988,
        "lon": -12.907282097295637,
        "alt_km": 1197.3012866357176,
        "timestamp": "2025-12-21T09:37:22.305521+00:00",
        "meta_object_name": "YAOGAN-22",
        "meta_object_id": "2014-063A",
        "meta_epoch": "2025-12-21T03:35:36.881088",
        "meta_mean_motion": 13.15522896,
        "meta_eccentricity": 0.0006033,
        "meta_inclination": 100.7427,
        "meta_ra_of_asc_node": 138.6881,
        "meta_arg_of_pericenter": 228.0657,
        "meta_mean_anomaly": 131.9941,
        "meta_ephemeris_type": 0,
        "meta_classification_type": "U",
        "meta_norad_cat_id": 40275,
        "meta_element_set_no": 999,
        "meta_rev_at_epoch": 53640,
        "meta_bstar": 3.0794e-05,
        "meta_mean_motion_dot": -3.5e-07,
        "meta_mean_motion_ddot": 0,
        "tle_line1": "1 40275U 14063A   25355.14973242 -.00000035  00000+0  30794-4 0  9999",
        "tle_line2": "2 40275 100.7427 138.6881 0006033 228.0657 131.9941 13.15522896536406"
      },
      "geometry": {
        "type": "Point",
        "coordinates": [
          -12.907282097295637,
          68.0813581358988
        ]
      }
    },
    {
      "type": "Feature",
      "properties": {
        "norad_id": 40298,
        "name": "ASNARO",
        "group": "resource",
        "lat": -14.112838870268467,
        "lon": -110.72725290633136,
        "alt_km": 511.92645120449106,
        "timestamp": "2025-12-21T09:37:22.305546+00:00",
        "meta_object_name": "ASNARO",
        "meta_object_id": "2014-070A",
        "meta_epoch": "2025-12-21T04:01:51.303360",
        "meta_mean_motion": 15.19651509,
        "meta_eccentricity": 0.0005686,
        "meta_inclination": 97.3649,
        "meta_ra_of_asc_node": 70.909,
        "meta_arg_of_pericenter": 100.2472,
        "meta_mean_anomaly": 259.9404,
        "meta_ephemeris_type": 0,
        "meta_classification_type": "U",
        "meta_norad_cat_id": 40298,
        "meta_element_set_no": 999,
        "meta_rev_at_epoch": 61697,
        "meta_bstar": 0.0003079,
        "meta_mean_motion_dot": 6.502e-05,
        "meta_mean_motion_ddot": 0,
        "tle_line1": "1 40298U 14070A   25355.16795490  .00006502  00000+0  30790-3 0  9990",
        "tle_line2": "2 40298  97.3649  70.9090 0005686 100.2472 259.9404 15.19651509616973"
      },
      "geometry": {
        "type": "Point",
        "coordinates": [
          -110.72725290633136,
          -14.112838870268467
        ]
      }
    },
    {
      "type": "Feature",
      "properties": {
        "norad_id": 40310,
        "name": "YAOGAN-24",
        "group": "resource",
        "lat": -73.77790948133466,
        "lon": -82.85847737585891,
        "alt_km": 657.2454436891221,
        "timestamp": "2025-12-21T09:37:22.305559+00:00",
        "meta_object_name": "YAOGAN-24",
        "meta_object_id": "2014-072A",
        "meta_epoch": "2025-12-21T05:12:53.064576",
        "meta_mean_motion": 14.76193499,
        "meta_eccentricity": 0.0015133,
        "meta_inclination": 98.1227,
        "meta_ra_of_asc_node": 126.3558,
        "meta_arg_of_pericenter": 112.6312,
        "meta_mean_anomaly": 247.65,
        "meta_ephemeris_type": 0,
        "meta_classification_type": "U",
        "meta_norad_cat_id": 40310,
        "meta_element_set_no": 999,
        "meta_rev_at_epoch": 59746,
        "meta_bstar": 0.00011998,
        "meta_mean_motion_dot": 7.78e-06,
        "meta_mean_motion_ddot": 0,
        "tle_line1": "1 40310U 14072A   25355.21728084  .00000778  00000+0  11998-3 0  9996",
        "tle_line2": "2 40310  98.1227 126.3558 0015133 112.6312 247.6500 14.76193499597466"
      },
      "geometry": {
        "type": "Point",
        "coordinates": [
          -82.85847737585891,
          -73.77790948133466
        ]
      }
    },
    {
      "type": "Feature",
      "properties": {
        "norad_id": 40336,
        "name": "CBERS 4",
        "group": "resource",
        "lat": 9.58962056636996,
        "lon": -125.46003767779065,
        "alt_km": 774.4633157862309,
        "timestamp": "2025-12-21T09:37:22.305571+00:00",
        "meta_object_name": "CBERS 4",
        "meta_object_id": "2014-079A",
        "meta_epoch": "2025-12-21T03:48:51.297120",
        "meta_mean_motion": 14.35520098,
        "meta_eccentricity": 0.00018,
        "meta_inclination": 98.3302,
        "meta_ra_of_asc_node": 52.8878,
        "meta_arg_of_pericenter": 103.3356,
        "meta_mean_anomaly": 256.8031,
        "meta_ephemeris_type": 0,
        "meta_classification_type": "U",
        "meta_norad_cat_id": 40336,
        "meta_element_set_no": 999,
        "meta_rev_at_epoch": 57841,
        "meta_bstar": -8.4944e-06,
        "meta_mean_motion_dot": -6.6e-07,
        "meta_mean_motion_ddot": 0,
        "tle_line1": "1 40336U 14079A   25355.15892705 -.00000066  00000+0 -84944-5 0  9991",
        "tle_line2": "2 40336  98.3302  52.8878 0001800 103.3356 256.8031 14.35520098578418"
      },
      "geometry": {
        "type": "Point",
        "coordinates": [
          -125.46003767779065,
          9.58962056636996
        ]
      }
    },
    {
      "type": "Feature",
      "properties": {
        "norad_id": 40362,
        "name": "YAOGAN-26",
        "group": "resource",
        "lat": 59.86620030389291,
        "lon": -171.8987161785231,
        "alt_km": 443.02878797392987,
        "timestamp": "2025-12-21T09:37:22.305582+00:00",
        "meta_object_name": "YAOGAN-26",
        "meta_object_id": "2014-088A",
        "meta_epoch": "2025-12-21T05:59:12.804864",
        "meta_mean_motion": 15.3957967,
        "meta_eccentricity": 0.0005041,
        "meta_inclination": 97.0633,
        "meta_ra_of_asc_node": 355.6211,
        "meta_arg_of_pericenter": 5.0106,
        "meta_mean_anomaly": 355.119,
        "meta_ephemeris_type": 0,
        "meta_classification_type": "U",
        "meta_norad_cat_id": 40362,
        "meta_element_set_no": 999,
        "meta_rev_at_epoch": 61025,
        "meta_bstar": 0.0004521,
        "meta_mean_motion_dot": 0.00017738,
        "meta_mean_motion_ddot": 0,
        "tle_line1": "1 40362U 14088A   25355.24945376  .00017738  00000+0  45210-3 0  9996",
        "tle_line2": "2 40362  97.0633 355.6211 0005041   5.0106 355.1190 15.39579670610250"
      },
      "geometry": {
        "type": "Point",
        "coordinates": [
          -171.8987161785231,
          59.86620030389291
        ]
      }
    }
  ]
}